[{"OBJECT_NAME":"STARLINK-2502","OBJECT_ID":"2021-036BD","EPOCH":"2026-03-10T00:00:02.999808","MEAN_MOTION":15.28340514,"ECCENTRICITY":9.335e-5,"INCLINATION":53.1499,"RA_OF_ASC_NODE":99.3642,"ARG_OF_PERICENTER":50.0408,"MEAN_ANOMALY":293.7111,"EPHEMERIS_TYPE":0,"CLASSIFICATION_TYPE":"U","NORAD_CAT_ID":48327,"ELEMENT_SET_NO":999,"REV_AT_EPOCH":579,"BSTAR":0.043872504,"MEAN_MOTION_DOT":0.01350461,"MEAN_MOTION_DDOT":0},{"OBJECT_NAME":"ELECTRON KICK STAGE R\/B","OBJECT_ID":"2022-147B","EPOCH":"2026-03-09T22:28:20.187264","MEAN_MOTION":15.28920172,"ECCENTRICITY":0.00095089,"INCLINATION":97.642,"RA_OF_ASC_NODE":85.1135,"ARG_OF_PERICENTER":110.4683,"MEAN_ANOMALY":249.7578,"EPHEMERIS_TYPE":0,"CLASSIFICATION_TYPE":"U","NORAD_CAT_ID":54228,"ELEMENT_SET_NO":999,"REV_AT_EPOCH":18390,"BSTAR":0.00083201931,"MEAN_MOTION_DOT":0.00023374,"MEAN_MOTION_DDOT":0}]
